{"type": "FeatureCollection", "features": [ {"type": "Feature", "properties": {"norad_id": 41335, "name": "SENTINEL-3A", "group": "resource", "lat": 61.11059820791455, "lon": 33.86777407672983, "alt_km": 796.0701367557022, "timestamp": "2025-12-10T18:56:59.719244+00:00", "meta": {"OBJECT_NAME": "SENTINEL-3A", "OBJECT_ID": "2016-011A", "EPOCH": "2025-12-10T11:55:35.268672", "MEAN_MOTION": 14.26745314, "ECCENTRICITY": 9.52e-05, "INCLINATION": 98.621, "RA_OF_ASC_NODE": 49.5379, "ARG_OF_PERICENTER": 93.7291, "MEAN_ANOMALY": 266.3998, "EPHEMERIS_TYPE": 0, "CLASSIFICATION_TYPE": "U", "NORAD_CAT_ID": 41335, "ELEMENT_SET_NO": 999, "REV_AT_EPOCH": 51115, "BSTAR": 0.00011566, "MEAN_MOTION_DOT": 2.36e-06, "MEAN_MOTION_DDOT": 0}, "tle": {"line1": "1 41335U 16011A   25344.49693598  .00000236  00000+0  11566-3 0  9998", "line2": "2 41335  98.6210  49.5379 0000952  93.7291 266.3998 14.26745314511151"}}, "geometry": {"type": "Point", "coordinates": [33.86777407672983, 61.11059820791455]}}, {"type": "Feature", "properties": {"norad_id": 41556, "name": "ZIYUAN 3-2 (ZY 3-2)", "group": "resource", "lat": -49.434821713666146, "lon": -129.74914031088693, "alt_km": 500.7513072505335, "timestamp": "2025-12-10T18:56:59.719254+00:00", "meta": {"OBJECT_NAME": "ZIYUAN 3-2 (ZY 3-2)", "OBJECT_ID": "2016-033A", "EPOCH": "2025-12-10T11:37:39.681120", "MEAN_MOTION": 15.21448948, "ECCENTRICITY": 0.001242, "INCLINATION": 97.4041, "RA_OF_ASC_NODE": 58.6883, "ARG_OF_PERICENTER": 257.7887, "MEAN_ANOMALY": 102.1958, "EPHEMERIS_TYPE": 0, "CLASSIFICATION_TYPE": "U", "NORAD_CAT_ID": 41556, "ELEMENT_SET_NO": 999, "REV_AT_EPOCH": 52929, "BSTAR": 0.00051017, "MEAN_MOTION_DOT": 0.00011424, "MEAN_MOTION_DDOT": 0}, "tle": {"line1": "1 41556U 16033A   25344.48448705  .00011424  00000+0  51017-3 0  9990", "line2": "2 41556  97.4041  58.6883 0012420 257.7887 102.1958 15.21448948529298"}}, "geometry": {"type": "Point", "coordinates": [-129.74914031088693, -49.434821713666146]}}, {"type": "Feature", "properties": {"norad_id": 41599, "name": "CARTOSAT-2C", "group": "resource", "lat": -9.472263331475972, "lon": -139.19595221662271, "alt_km": 515.9093425926949, "timestamp": "2025-12-10T18:56:59.719264+00:00", "meta": {"OBJECT_NAME": "CARTOSAT-2C", "OBJECT_ID": "2016-040A", "EPOCH": "2025-12-10T10:12:57.943296", "MEAN_MOTION": 15.19259524, "ECCENTRICITY": 0.001095, "INCLINATION": 97.4767, "RA_OF_ASC_NODE": 41.6994, "ARG_OF_PERICENTER": 71.9765, "MEAN_ANOMALY": 288.2662, "EPHEMERIS_TYPE": 0, "CLASSIFICATION_TYPE": "U", "NORAD_CAT_ID": 41599, "ELEMENT_SET_NO": 999, "REV_AT_EPOCH": 52505, "BSTAR": 0.00039452, "MEAN_MOTION_DOT": 8.264e-05, "MEAN_MOTION_DDOT": 0}, "tle": {"line1": "1 41599U 16040A   25344.42567064  .00008264  00000+0  39452-3 0  9996", "line2": "2 41599  97.4767  41.6994 0010950  71.9765 288.2662 15.19259524525057"}}, "geometry": {"type": "Point", "coordinates": [-139.19595221662271, -9.472263331475972]}}, {"type": "Feature", "properties": {"norad_id": 41601, "name": "SKYSAT-C1", "group": "resource", "lat": 28.17034999982992, "lon": -154.32390058246747, "alt_km": 468.33586649283734, "timestamp": "2025-12-10T18:56:59.719275+00:00", "meta": {"OBJECT_NAME": "SKYSAT-C1", "OBJECT_ID": "2016-040C", "EPOCH": "2025-12-10T01:03:12.196224", "MEAN_MOTION": 15.32510525, "ECCENTRICITY": 0.00026802, "INCLINATION": 96.9824, "RA_OF_ASC_NODE": 21.2092, "ARG_OF_PERICENTER": 23.5908, "MEAN_ANOMALY": 336.5457, "EPHEMERIS_TYPE": 0, "CLASSIFICATION_TYPE": "U", "NORAD_CAT_ID": 41601, "ELEMENT_SET_NO": 999, "REV_AT_EPOCH": 52886, "BSTAR": 0.00041563234, "MEAN_MOTION_DOT": 0.00012984, "MEAN_MOTION_DDOT": 0}, "tle": {"line1": "1 41601U 16040C   25344.04389116  .00012984  00000+0  41563-3 0  9998", "line2": "2 41601  96.9824  21.2092 0002680  23.5908 336.5457 15.32510525528862"}}, "geometry": {"type": "Point", "coordinates": [-154.32390058246747, 28.17034999982992]}}, {"type": "Feature", "properties": {"norad_id": 41603, "name": "LAPAN-A3", "group": "resource", "lat": -57.07435755633425, "lon": -6.416491073983987, "alt_km": 473.1304210712451, "timestamp": "2025-12-10T18:56:59.719284+00:00", "meta": {"OBJECT_NAME": "LAPAN-A3", "OBJECT_ID": "2016-040E", "EPOCH": "2025-12-10T12:55:44.395392", "MEAN_MOTION": 15.31522734, "ECCENTRICITY": 0.0009907, "INCLINATION": 97.1433, "RA_OF_ASC_NODE": 342.1748, "ARG_OF_PERICENTER": 342.3873, "MEAN_ANOMALY": 17.7024, "EPHEMERIS_TYPE": 0, "CLASSIFICATION_TYPE": "U", "NORAD_CAT_ID": 41603, "ELEMENT_SET_NO": 999, "REV_AT_EPOCH": 52592, "BSTAR": 0.00019448, "MEAN_MOTION_DOT": 5.854e-05, "MEAN_MOTION_DDOT": 0}, "tle": {"line1": "1 41603U 16040E   25344.53870828  .00005854  00000+0  19448-3 0  9994", "line2": "2 41603  97.1433 342.1748 0009907 342.3873  17.7024 15.31522734525924"}}, "geometry": {"type": "Point", "coordinates": [-6.416491073983987, -57.07435755633425]}}, {"type": "Feature", "properties": {"norad_id": 41604, "name": "BIROS", "group": "resource", "lat": 78.15726095587924, "lon": -20.14992498726075, "alt_km": 297.78477639333505, "timestamp": "2025-12-10T18:56:59.719294+00:00", "meta": {"OBJECT_NAME": "BIROS", "OBJECT_ID": "2016-040F", "EPOCH": "2025-12-10T01:58:59.670912", "MEAN_MOTION": 15.88522659, "ECCENTRICITY": 0.00031678, "INCLINATION": 97.0703, "RA_OF_ASC_NODE": 15.4098, "ARG_OF_PERICENTER": 156.5515, "MEAN_ANOMALY": 203.5903, "EPHEMERIS_TYPE": 0, "CLASSIFICATION_TYPE": "U", "NORAD_CAT_ID": 41604, "ELEMENT_SET_NO": 999, "REV_AT_EPOCH": 52830, "BSTAR": 0.00072041907, "MEAN_MOTION_DOT": 0.00203476, "MEAN_MOTION_DDOT": 0}, "tle": {"line1": "1 41604U 16040F   25344.08263508  .00203476  00000+0  72042-3 0  9995", "line2": "2 41604  97.0703  15.4098 0003167 156.5515 203.5903 15.88522659528306"}}, "geometry": {"type": "Point", "coordinates": [-20.14992498726075, 78.15726095587924]}}, {"type": "Feature", "properties": {"norad_id": 41727, "name": "GAOFEN-3", "group": "resource", "lat": -14.314044347202424, "lon": -7.433023823060677, "alt_km": 755.5703167827778, "timestamp": "2025-12-10T18:56:59.719304+00:00", "meta": {"OBJECT_NAME": "GAOFEN-3", "OBJECT_ID": "2016-049A", "EPOCH": "2025-12-10T12:21:23.599008", "MEAN_MOTION": 14.42212459, "ECCENTRICITY": 0.0001501, "INCLINATION": 98.4039, "RA_OF_ASC_NODE": 350.1347, "ARG_OF_PERICENTER": 63.3436, "MEAN_ANOMALY": 296.7907, "EPHEMERIS_TYPE": 0, "CLASSIFICATION_TYPE": "U", "NORAD_CAT_ID": 41727, "ELEMENT_SET_NO": 999, "REV_AT_EPOCH": 49145, "BSTAR": 3.2138e-05, "MEAN_MOTION_DOT": 6.2e-07, "MEAN_MOTION_DDOT": 0}, "tle": {"line1": "1 41727U 16049A   25344.51485647  .00000062  00000+0  32138-4 0  9997", "line2": "2 41727  98.4039 350.1347 0001501  63.3436 296.7907 14.42212459491458"}}, "geometry": {"type": "Point", "coordinates": [-7.433023823060677, -14.314044347202424]}}, {"type": "Feature", "properties": {"norad_id": 41771, "name": "SKYSAT-C4", "group": "resource", "lat": 18.825190262065327, "lon": 7.692521404234894, "alt_km": 440.47463416761093, "timestamp": "2025-12-10T18:56:59.719315+00:00", "meta": {"OBJECT_NAME": "SKYSAT-C4", "OBJECT_ID": "2016-058B", "EPOCH": "2025-12-10T07:58:00.531840", "MEAN_MOTION": 15.42137296, "ECCENTRICITY": 0.0001263, "INCLINATION": 96.9376, "RA_OF_ASC_NODE": 9.6363, "ARG_OF_PERICENTER": 134.0964, "MEAN_ANOMALY": 226.0388, "EPHEMERIS_TYPE": 0, "CLASSIFICATION_TYPE": "U", "NORAD_CAT_ID": 41771, "ELEMENT_SET_NO": 999, "REV_AT_EPOCH": 51630, "BSTAR": 0.00048359, "MEAN_MOTION_DOT": 0.00020656, "MEAN_MOTION_DDOT": 0}, "tle": {"line1": "1 41771U 16058B   25344.33195060  .00020656  00000+0  48359-3 0  9995", "line2": "2 41771  96.9376   9.6363 0001263 134.0964 226.0388 15.42137296516302"}}, "geometry": {"type": "Point", "coordinates": [7.692521404234894, 18.825190262065327]}}, {"type": "Feature", "properties": {"norad_id": 41772, "name": "SKYSAT-C5", "group": "resource", "lat": -17.171599728426873, "lon": 30.818327783322697, "alt_km": 466.5478434019533, "timestamp": "2025-12-10T18:56:59.719324+00:00", "meta": {"OBJECT_NAME": "SKYSAT-C5", "OBJECT_ID": "2016-058C", "EPOCH": "2025-12-10T09:38:23.191584", "MEAN_MOTION": 15.35296249, "ECCENTRICITY": 0.0002399, "INCLINATION": 97.076, "RA_OF_ASC_NODE": 28.246, "ARG_OF_PERICENTER": 139.5793, "MEAN_ANOMALY": 220.5629, "EPHEMERIS_TYPE": 0, "CLASSIFICATION_TYPE": "U", "NORAD_CAT_ID": 41772, "ELEMENT_SET_NO": 999, "REV_AT_EPOCH": 51480, "BSTAR": 0.00044653, "MEAN_MOTION_DOT": 0.00015242, "MEAN_MOTION_DDOT": 0}, "tle": {"line1": "1 41772U 16058C   25344.40165731  .00015242  00000+0  44653-3 0  9994", "line2": "2 41772  97.0760  28.2460 0002399 139.5793 220.5629 15.35296249514804"}}, "geometry": {"type": "Point", "coordinates": [30.818327783322697, -17.171599728426873]}}, {"type": "Feature", "properties": {"norad_id": 41773, "name": "SKYSAT-C2", "group": "resource", "lat": -21.358962806834736, "lon": 12.167423068400314, "alt_km": 458.3095469192067, "timestamp": "2025-12-10T18:56:59.719334+00:00", "meta": {"OBJECT_NAME": "SKYSAT-C2", "OBJECT_ID": "2016-058D", "EPOCH": "2025-12-10T08:06:25.640064", "MEAN_MOTION": 15.37180734, "ECCENTRICITY": 0.0004477, "INCLINATION": 97.0364, "RA_OF_ASC_NODE": 8.9661, "ARG_OF_PERICENTER": 40.507, "MEAN_ANOMALY": 319.6508, "EPHEMERIS_TYPE": 0, "CLASSIFICATION_TYPE": "U", "NORAD_CAT_ID": 41773, "ELEMENT_SET_NO": 999, "REV_AT_EPOCH": 51599, "BSTAR": 0.0004509, "MEAN_MOTION_DOT": 0.00016358, "MEAN_MOTION_DDOT": 0}, "tle": {"line1": "1 41773U 16058D   25344.33779676  .00016358  00000+0  45090-3 0  9991", "line2": "2 41773  97.0364   8.9661 0004477  40.5070 319.6508 15.37180734515991"}}, "geometry": {"type": "Point", "coordinates": [12.167423068400314, -21.358962806834736]}}]}